{"fetched_at":"2026-03-29T02:12:04Z","count":15717,"tles":[{"name":"SHIYAN-10 01 (SY-10 01)","line1":"1 49258U 21087A   26078.67491573  .00000729  00000+0  00000+0 0  9997","line2":"2 49258  63.1045 230.4083 6968080 269.9215  17.1698  2.00646871 32731","category":"Other"}]}